FENGYUN 1C DEB          
1 31966U 99025CNT 26061.90797159  .00005889  00000+0  96172-3 0  9999
2 31966  99.0244 227.6851 0084047  27.7650 332.8002 14.68989901669190
FENGYUN 1C DEB          
1 31972U 99025CNZ 26065.60195126  .00000343  00000+0  22444-3 0  9994
2 31972  99.1983 113.8281 0077195 157.4842 355.6549 14.07566319961406
FENGYUN 1C DEB          
1 31974U 99025CPB 26065.00147000  .00005507  00000+0  20668-2 0  9990
2 31974  98.3780  78.0340 0072063  57.1882 303.6215 14.30555891706129
FENGYUN 1C DEB          
1 31978U 99025CPF 26063.34785389  .00002873  00000+0  29082-2 0  9999
2 31978  98.3837 212.1844 0265678 193.6701 165.7152 13.63382994927026
FENGYUN 1C DEB          
1 31979U 99025CPG 26058.08942604  .00002381  00000+0  21612-2 0  9995
2 31979  99.3722 153.7671 0263752  84.5918 278.5255 13.69916856589575
FENGYUN 1C DEB          
1 31980U 99025CPH 26058.42296911  .00000546  00000+0  71925-3 0  9992
2 31980  97.5961 129.0774 0425970 276.0602  79.2160 13.32228778906913
FENGYUN 1C DEB          
1 31984U 99025CPM 26063.86790367  .00001095  00000+0  49387-3 0  9991
2 31984  98.5611  70.9132 0063236 350.2831   9.7120 14.23120730955417
FENGYUN 1C DEB          
1 31985U 99025CPN 26063.49035358  .00001230  00000+0  50003-3 0  9991
2 31985  98.2149 324.3292 0151864   7.1687 353.1615 14.23115167967737
FENGYUN 1C DEB          
1 31986U 99025CPP 26062.05998330  .00000808  00000+0  41487-3 0  9997
2 31986  99.7266  13.8101 0123373 297.0996  61.7632 14.14767460677143
FENGYUN 1C DEB          
1 31987U 99025CPQ 26064.91501091  .00004276  00000+0  12035-2 0  9998
2 31987  99.0477  48.8812 0049761 272.2274 144.2211 14.45688582975715
FENGYUN 1C DEB          
1 31988U 99025CPR 26059.39928934  .00003523  00000+0  16078-2 0  9999
2 31988  98.1319 127.5122 0061064  63.5952 297.1477 14.21139211652554
FENGYUN 1C DEB          
1 31989U 99025CPS 26065.12924950  .00000791  00000+0  59906-3 0  9994
2 31989  99.1984 130.9333 0116827  72.8770 318.3256 13.93742681948799
FENGYUN 1C DEB          
1 31990U 99025CPT 26064.85926250  .00000273  00000+0  35433-3 0  9994
2 31990  99.1551  86.7084 0259221 332.0252 151.0556 13.57251868638999
FENGYUN 1C DEB          
1 31991U 99025CPU 26062.37484897  .00000144  00000+0  21033-3 0  9994
2 31991 100.4883 262.3116 0243860 214.5572 143.9506 13.61306502631846
FENGYUN 1C DEB          
1 31992U 99025CPV 26036.59770808  .00000617  00000+0  71684-3 0  9992
2 31992  99.1724 355.0817 0540083 256.7546  97.2818 13.23123651546009
FENGYUN 1C DEB          
1 31993U 99025CPW 26064.73532674  .00001124  00000+0  15672-2 0  9995
2 31993  99.2406  33.3215 0426664 294.4242  61.2931 13.27863627900443
