[{"OBJECT_NAME":"FENGYUN 1C DEB","OBJECT_ID":"1999-025CNT","EPOCH":"2026-03-02T21:47:28.745376","MEAN_MOTION":14.68989901,"ECCENTRICITY":0.0084047,"INCLINATION":99.0244,"RA_OF_ASC_NODE":227.6851,"ARG_OF_PERICENTER":27.765,"MEAN_ANOMALY":332.8002,"EPHEMERIS_TYPE":0,"CLASSIFICATION_TYPE":"U","NORAD_CAT_ID":31966,"ELEMENT_SET_NO":999,"REV_AT_EPOCH":66919,"BSTAR":0.00096172,"MEAN_MOTION_DOT":5.889e-5,"MEAN_MOTION_DDOT":0},{"OBJECT_NAME":"FENGYUN 1C DEB","OBJECT_ID":"1999-025CNZ","EPOCH":"2026-03-06T14:26:48.588864","MEAN_MOTION":14.07566319,"ECCENTRICITY":0.00771954,"INCLINATION":99.1983,"RA_OF_ASC_NODE":113.8281,"ARG_OF_PERICENTER":157.4842,"MEAN_ANOMALY":355.6549,"EPHEMERIS_TYPE":0,"CLASSIFICATION_TYPE":"U","NORAD_CAT_ID":31972,"ELEMENT_SET_NO":999,"REV_AT_EPOCH":96140,"BSTAR":0.000224444,"MEAN_MOTION_DOT":3.43e-6,"MEAN_MOTION_DDOT":0},{"OBJECT_NAME":"FENGYUN 1C DEB","OBJECT_ID":"1999-025CPB","EPOCH":"2026-03-06T00:02:07.008000","MEAN_MOTION":14.30555891,"ECCENTRICITY":0.00720634,"INCLINATION":98.378,"RA_OF_ASC_NODE":78.034,"ARG_OF_PERICENTER":57.1882,"MEAN_ANOMALY":303.6215,"EPHEMERIS_TYPE":0,"CLASSIFICATION_TYPE":"U","NORAD_CAT_ID":31974,"ELEMENT_SET_NO":999,"REV_AT_EPOCH":70612,"BSTAR":0.0020668298,"MEAN_MOTION_DOT":5.507e-5,"MEAN_MOTION_DDOT":0},{"OBJECT_NAME":"FENGYUN 1C DEB","OBJECT_ID":"1999-025CPF","EPOCH":"2026-03-04T08:20:54.576096","MEAN_MOTION":13.63382994,"ECCENTRICITY":0.02656783,"INCLINATION":98.3837,"RA_OF_ASC_NODE":212.1844,"ARG_OF_PERICENTER":193.6701,"MEAN_ANOMALY":165.7152,"EPHEMERIS_TYPE":0,"CLASSIFICATION_TYPE":"U","NORAD_CAT_ID":31978,"ELEMENT_SET_NO":999,"REV_AT_EPOCH":92702,"BSTAR":0.0029081895,"MEAN_MOTION_DOT":2.873e-5,"MEAN_MOTION_DDOT":0},{"OBJECT_NAME":"FENGYUN 1C DEB","OBJECT_ID":"1999-025CPG","EPOCH":"2026-02-27T02:08:46.409856","MEAN_MOTION":13.69916856,"ECCENTRICITY":0.02637526,"INCLINATION":99.3722,"RA_OF_ASC_NODE":153.7671,"ARG_OF_PERICENTER":84.5918,"MEAN_ANOMALY":278.5255,"EPHEMERIS_TYPE":0,"CLASSIFICATION_TYPE":"U","NORAD_CAT_ID":31979,"ELEMENT_SET_NO":999,"REV_AT_EPOCH":58957,"BSTAR":0.0021611662,"MEAN_MOTION_DOT":2.381e-5,"MEAN_MOTION_DDOT":0},{"OBJECT_NAME":"FENGYUN 1C DEB","OBJECT_ID":"1999-025CPH","EPOCH":"2026-02-27T10:09:04.531104","MEAN_MOTION":13.32228778,"ECCENTRICITY":0.042597,"INCLINATION":97.5961,"RA_OF_ASC_NODE":129.0774,"ARG_OF_PERICENTER":276.0602,"MEAN_ANOMALY":79.216,"EPHEMERIS_TYPE":0,"CLASSIFICATION_TYPE":"U","NORAD_CAT_ID":31980,"ELEMENT_SET_NO":999,"REV_AT_EPOCH":90691,"BSTAR":0.00071925,"MEAN_MOTION_DOT":5.46e-6,"MEAN_MOTION_DDOT":0},{"OBJECT_NAME":"FENGYUN 1C DEB","OBJECT_ID":"1999-025CPM","EPOCH":"2026-03-04T20:49:46.877088","MEAN_MOTION":14.2312073,"ECCENTRICITY":0.00632366,"INCLINATION":98.5611,"RA_OF_ASC_NODE":70.9132,"ARG_OF_PERICENTER":350.2831,"MEAN_ANOMALY":9.712,"EPHEMERIS_TYPE":0,"CLASSIFICATION_TYPE":"U","NORAD_CAT_ID":31984,"ELEMENT_SET_NO":999,"REV_AT_EPOCH":95541,"BSTAR":0.00049386515,"MEAN_MOTION_DOT":1.095e-5,"MEAN_MOTION_DDOT":0},{"OBJECT_NAME":"FENGYUN 1C DEB","OBJECT_ID":"1999-025CPN","EPOCH":"2026-03-04T11:46:06.549312","MEAN_MOTION":14.23115167,"ECCENTRICITY":0.0151864,"INCLINATION":98.2149,"RA_OF_ASC_NODE":324.3292,"ARG_OF_PERICENTER":7.1687,"MEAN_ANOMALY":353.1615,"EPHEMERIS_TYPE":0,"CLASSIFICATION_TYPE":"U","NORAD_CAT_ID":31985,"ELEMENT_SET_NO":999,"REV_AT_EPOCH":96773,"BSTAR":0.00050003,"MEAN_MOTION_DOT":1.23e-5,"MEAN_MOTION_DDOT":0},{"OBJECT_NAME":"FENGYUN 1C DEB","OBJECT_ID":"1999-025CPP","EPOCH":"2026-03-03T01:26:22.557120","MEAN_MOTION":14.1476746,"ECCENTRICITY":0.01233738,"INCLINATION":99.7266,"RA_OF_ASC_NODE":13.8101,"ARG_OF_PERICENTER":297.0996,"MEAN_ANOMALY":61.7632,"EPHEMERIS_TYPE":0,"CLASSIFICATION_TYPE":"U","NORAD_CAT_ID":31986,"ELEMENT_SET_NO":999,"REV_AT_EPOCH":67714,"BSTAR":0.00041487169,"MEAN_MOTION_DOT":8.08e-6,"MEAN_MOTION_DDOT":0},{"OBJECT_NAME":"FENGYUN 1C DEB","OBJECT_ID":"1999-025CPQ","EPOCH":"2026-03-05T21:57:36.942624","MEAN_MOTION":14.45688582,"ECCENTRICITY":0.00497618,"INCLINATION":99.0477,"RA_OF_ASC_NODE":48.8812,"ARG_OF_PERICENTER":272.2274,"MEAN_ANOMALY":144.2211,"EPHEMERIS_TYPE":0,"CLASSIFICATION_TYPE":"U","NORAD_CAT_ID":31987,"ELEMENT_SET_NO":999,"REV_AT_EPOCH":97571,"BSTAR":0.0012035333,"MEAN_MOTION_DOT":4.276e-5,"MEAN_MOTION_DDOT":0},{"OBJECT_NAME":"FENGYUN 1C DEB","OBJECT_ID":"1999-025CPR","EPOCH":"2026-02-28T09:34:58.598976","MEAN_MOTION":14.21139211,"ECCENTRICITY":0.00610645,"INCLINATION":98.1319,"RA_OF_ASC_NODE":127.5122,"ARG_OF_PERICENTER":63.5952,"MEAN_ANOMALY":297.1477,"EPHEMERIS_TYPE":0,"CLASSIFICATION_TYPE":"U","NORAD_CAT_ID":31988,"ELEMENT_SET_NO":999,"REV_AT_EPOCH":65255,"BSTAR":0.0016077763,"MEAN_MOTION_DOT":3.523e-5,"MEAN_MOTION_DDOT":0},{"OBJECT_NAME":"FENGYUN 1C DEB","OBJECT_ID":"1999-025CPS","EPOCH":"2026-03-06T03:06:07.156800","MEAN_MOTION":13.93742681,"ECCENTRICITY":0.01168278,"INCLINATION":99.1984,"RA_OF_ASC_NODE":130.9333,"ARG_OF_PERICENTER":72.877,"MEAN_ANOMALY":318.3256,"EPHEMERIS_TYPE":0,"CLASSIFICATION_TYPE":"U","NORAD_CAT_ID":31989,"ELEMENT_SET_NO":999,"REV_AT_EPOCH":94879,"BSTAR":0.00059905767,"MEAN_MOTION_DOT":7.91e-6,"MEAN_MOTION_DDOT":0},{"OBJECT_NAME":"FENGYUN 1C DEB","OBJECT_ID":"1999-025CPT","EPOCH":"2026-03-05T20:37:20.280000","MEAN_MOTION":13.57251868,"ECCENTRICITY":0.02592219,"INCLINATION":99.1551,"RA_OF_ASC_NODE":86.7084,"ARG_OF_PERICENTER":332.0252,"MEAN_ANOMALY":151.0556,"EPHEMERIS_TYPE":0,"CLASSIFICATION_TYPE":"U","NORAD_CAT_ID":31990,"ELEMENT_SET_NO":999,"REV_AT_EPOCH":63899,"BSTAR":0.00035432713,"MEAN_MOTION_DOT":2.73e-6,"MEAN_MOTION_DDOT":0},{"OBJECT_NAME":"FENGYUN 1C DEB","OBJECT_ID":"1999-025CPU","EPOCH":"2026-03-03T08:59:46.951008","MEAN_MOTION":13.61306502,"ECCENTRICITY":0.02438602,"INCLINATION":100.4883,"RA_OF_ASC_NODE":262.3116,"ARG_OF_PERICENTER":214.5572,"MEAN_ANOMALY":143.9506,"EPHEMERIS_TYPE":0,"CLASSIFICATION_TYPE":"U","NORAD_CAT_ID":31991,"ELEMENT_SET_NO":999,"REV_AT_EPOCH":63184,"BSTAR":0.00021032528,"MEAN_MOTION_DOT":1.44e-6,"MEAN_MOTION_DDOT":0},{"OBJECT_NAME":"FENGYUN 1C DEB","OBJECT_ID":"1999-025CPV","EPOCH":"2026-02-05T14:20:41.978112","MEAN_MOTION":13.23123651,"ECCENTRICITY":0.0540083,"INCLINATION":99.1724,"RA_OF_ASC_NODE":355.0817,"ARG_OF_PERICENTER":256.7546,"MEAN_ANOMALY":97.2818,"EPHEMERIS_TYPE":0,"CLASSIFICATION_TYPE":"U","NORAD_CAT_ID":31992,"ELEMENT_SET_NO":999,"REV_AT_EPOCH":54600,"BSTAR":0.00071684,"MEAN_MOTION_DOT":6.17e-6,"MEAN_MOTION_DDOT":0},{"OBJECT_NAME":"FENGYUN 1C DEB","OBJECT_ID":"1999-025CPW","EPOCH":"2026-03-05T17:38:52.230336","MEAN_MOTION":13.27863627,"ECCENTRICITY":0.0426664,"INCLINATION":99.2406,"RA_OF_ASC_NODE":33.3215,"ARG_OF_PERICENTER":294.4242,"MEAN_ANOMALY":61.2931,"EPHEMERIS_TYPE":0,"CLASSIFICATION_TYPE":"U","NORAD_CAT_ID":31993,"ELEMENT_SET_NO":999,"REV_AT_EPOCH":90044,"BSTAR":0.001567169,"MEAN_MOTION_DOT":1.124e-5,"MEAN_MOTION_DDOT":0}]
